CCSDS_OMM_VERS = 2.0
CREATION_DATE  = 
ORIGINATOR     = 

OBJECT_NAME    = STARLINK-37125
OBJECT_ID      = 2026-055Q
CENTER_NAME    = EARTH
REF_FRAME      = TEME
TIME_SYSTEM    = UTC
MEAN_ELEMENT_THEORY = SGP/SGP4

EPOCH          = 2026-03-27T20:00:01.999872
MEAN_MOTION    = 15.99090330
ECCENTRICITY   = .00008375
INCLINATION    = 53.1582
RA_OF_ASC_NODE = 246.7222
ARG_OF_PERICENTER = 62.1778
MEAN_ANOMALY   = 33.7220

EPHEMERIS_TYPE = 0
CLASSIFICATION_TYPE = U
NORAD_CAT_ID   = 68276
ELEMENT_SET_NO = 999
REV_AT_EPOCH   = 255
BSTAR          = -.23815574E-2
MEAN_MOTION_DOT = -.1187013E-1
MEAN_MOTION_DDOT = .4488535E-3

CCSDS_OMM_VERS = 2.0
CREATION_DATE  = 
ORIGINATOR     = 

OBJECT_NAME    = STARLINK-36989
OBJECT_ID      = 2026-055R
CENTER_NAME    = EARTH
REF_FRAME      = TEME
TIME_SYSTEM    = UTC
MEAN_ELEMENT_THEORY = SGP/SGP4

EPOCH          = 2026-03-27T20:00:01.999872
MEAN_MOTION    = 15.99453288
ECCENTRICITY   = .00006656
INCLINATION    = 53.1582
RA_OF_ASC_NODE = 246.7038
ARG_OF_PERICENTER = 71.1294
MEAN_ANOMALY   = 33.7631

EPHEMERIS_TYPE = 0
CLASSIFICATION_TYPE = U
NORAD_CAT_ID   = 68277
ELEMENT_SET_NO = 999
REV_AT_EPOCH   = 255
BSTAR          = -.23444912E-2
MEAN_MOTION_DOT = -.119274E-1
MEAN_MOTION_DDOT = .45455471E-3

CCSDS_OMM_VERS = 2.0
CREATION_DATE  = 
ORIGINATOR     = 

OBJECT_NAME    = STARLINK-36982
OBJECT_ID      = 2026-055S
CENTER_NAME    = EARTH
REF_FRAME      = TEME
TIME_SYSTEM    = UTC
MEAN_ELEMENT_THEORY = SGP/SGP4

EPOCH          = 2026-03-27T20:00:01.999872
MEAN_MOTION    = 15.99337226
ECCENTRICITY   = .00007348
INCLINATION    = 53.1582
RA_OF_ASC_NODE = 246.7100
ARG_OF_PERICENTER = 63.2033
MEAN_ANOMALY   = 38.9154

EPHEMERIS_TYPE = 0
CLASSIFICATION_TYPE = U
NORAD_CAT_ID   = 68278
ELEMENT_SET_NO = 999
REV_AT_EPOCH   = 255
BSTAR          = -.23593487E-2
MEAN_MOTION_DOT = -.1192427E-1
MEAN_MOTION_DDOT = .45377424E-3

CCSDS_OMM_VERS = 2.0
CREATION_DATE  = 
ORIGINATOR     = 

OBJECT_NAME    = STARLINK-36934
OBJECT_ID      = 2026-055T
CENTER_NAME    = EARTH
REF_FRAME      = TEME
TIME_SYSTEM    = UTC
MEAN_ELEMENT_THEORY = SGP/SGP4

EPOCH          = 2026-03-27T20:00:01.999872
MEAN_MOTION    = 15.99216593
ECCENTRICITY   = .00009336
INCLINATION    = 53.1582
RA_OF_ASC_NODE = 246.7157
ARG_OF_PERICENTER = 64.4687
MEAN_ANOMALY   = 34.8432

EPHEMERIS_TYPE = 0
CLASSIFICATION_TYPE = U
NORAD_CAT_ID   = 68279
ELEMENT_SET_NO = 999
REV_AT_EPOCH   = 255
BSTAR          = -.23524607E-2
MEAN_MOTION_DOT = -.1181002E-1
MEAN_MOTION_DDOT = .44533043E-3

CCSDS_OMM_VERS = 2.0
CREATION_DATE  = 
ORIGINATOR     = 

OBJECT_NAME    = STARLINK-37070
OBJECT_ID      = 2026-055U
CENTER_NAME    = EARTH
REF_FRAME      = TEME
TIME_SYSTEM    = UTC
MEAN_ELEMENT_THEORY = SGP/SGP4

EPOCH          = 2026-03-27T20:00:01.999872
MEAN_MOTION    = 15.99597482
ECCENTRICITY   = .0000717
INCLINATION    = 53.1583
RA_OF_ASC_NODE = 246.6966
ARG_OF_PERICENTER = 75.6707
MEAN_ANOMALY   = 32.6337

EPHEMERIS_TYPE = 0
CLASSIFICATION_TYPE = U
NORAD_CAT_ID   = 68280
ELEMENT_SET_NO = 999
REV_AT_EPOCH   = 255
BSTAR          = -.2370382E-2
MEAN_MOTION_DOT = -.1215566E-1
MEAN_MOTION_DDOT = .47122118E-3

CCSDS_OMM_VERS = 2.0
CREATION_DATE  = 
ORIGINATOR     = 

OBJECT_NAME    = STARLINK-37134
OBJECT_ID      = 2026-055V
CENTER_NAME    = EARTH
REF_FRAME      = TEME
TIME_SYSTEM    = UTC
MEAN_ELEMENT_THEORY = SGP/SGP4

EPOCH          = 2026-03-27T20:00:01.999872
MEAN_MOTION    = 15.99847189
ECCENTRICITY   = .00008006
INCLINATION    = 53.1579
RA_OF_ASC_NODE = 246.6841
ARG_OF_PERICENTER = 71.1370
MEAN_ANOMALY   = 43.2452

EPHEMERIS_TYPE = 0
CLASSIFICATION_TYPE = U
NORAD_CAT_ID   = 68281
ELEMENT_SET_NO = 999
REV_AT_EPOCH   = 255
BSTAR          = -.23380393E-2
MEAN_MOTION_DOT = -.121617E-1
MEAN_MOTION_DDOT = .47291411E-3

CCSDS_OMM_VERS = 2.0
CREATION_DATE  = 
ORIGINATOR     = 

OBJECT_NAME    = STARLINK-37160
OBJECT_ID      = 2026-055W
CENTER_NAME    = EARTH
REF_FRAME      = TEME
TIME_SYSTEM    = UTC
MEAN_ELEMENT_THEORY = SGP/SGP4

EPOCH          = 2026-03-27T20:00:01.999872
MEAN_MOTION    = 15.99716621
ECCENTRICITY   = .0000731
INCLINATION    = 53.1582
RA_OF_ASC_NODE = 246.6907
ARG_OF_PERICENTER = 63.2518
MEAN_ANOMALY   = 48.2420

EPHEMERIS_TYPE = 0
CLASSIFICATION_TYPE = U
NORAD_CAT_ID   = 68282
ELEMENT_SET_NO = 999
REV_AT_EPOCH   = 255
BSTAR          = -.23202522E-2
MEAN_MOTION_DOT = -.1198171E-1
MEAN_MOTION_DDOT = .45961909E-3

CCSDS_OMM_VERS = 2.0
CREATION_DATE  = 
ORIGINATOR     = 

OBJECT_NAME    = STARLINK-37124
OBJECT_ID      = 2026-055X
CENTER_NAME    = EARTH
REF_FRAME      = TEME
TIME_SYSTEM    = UTC
MEAN_ELEMENT_THEORY = SGP/SGP4

EPOCH          = 2026-03-27T20:00:01.999872
MEAN_MOTION    = 15.99953344
ECCENTRICITY   = .00007216
INCLINATION    = 53.1581
RA_OF_ASC_NODE = 246.6794
ARG_OF_PERICENTER = 74.9213
MEAN_ANOMALY   = 41.9669

EPHEMERIS_TYPE = 0
CLASSIFICATION_TYPE = U
NORAD_CAT_ID   = 68283
ELEMENT_SET_NO = 999
REV_AT_EPOCH   = 255
BSTAR          = -.23033609E-2
MEAN_MOTION_DOT = -.120554E-1
MEAN_MOTION_DDOT = .46595694E-3

CCSDS_OMM_VERS = 2.0
CREATION_DATE  = 
ORIGINATOR     = 

OBJECT_NAME    = STARLINK-37159
OBJECT_ID      = 2026-055Y
CENTER_NAME    = EARTH
REF_FRAME      = TEME
TIME_SYSTEM    = UTC
MEAN_ELEMENT_THEORY = SGP/SGP4

EPOCH          = 2026-03-27T20:00:01.999872
MEAN_MOTION    = 16.00086045
ECCENTRICITY   = .00007609
INCLINATION    = 53.1581
RA_OF_ASC_NODE = 246.6728
ARG_OF_PERICENTER = 79.6142
MEAN_ANOMALY   = 40.3567

EPHEMERIS_TYPE = 0
CLASSIFICATION_TYPE = U
NORAD_CAT_ID   = 68284
ELEMENT_SET_NO = 999
REV_AT_EPOCH   = 255
BSTAR          = -.22895886E-2
MEAN_MOTION_DOT = -.1207447E-1
MEAN_MOTION_DDOT = .46796722E-3

CCSDS_OMM_VERS = 2.0
CREATION_DATE  = 
ORIGINATOR     = 

OBJECT_NAME    = STARLINK-36725
OBJECT_ID      = 2026-055Z
CENTER_NAME    = EARTH
REF_FRAME      = TEME
TIME_SYSTEM    = UTC
MEAN_ELEMENT_THEORY = SGP/SGP4

EPOCH          = 2026-03-27T20:00:01.999872
MEAN_MOTION    = 16.00199579
ECCENTRICITY   = .00007855
INCLINATION    = 53.1578
RA_OF_ASC_NODE = 246.6673
ARG_OF_PERICENTER = 66.7270
MEAN_ANOMALY   = 55.6936

EPHEMERIS_TYPE = 0
CLASSIFICATION_TYPE = U
NORAD_CAT_ID   = 68285
ELEMENT_SET_NO = 999
REV_AT_EPOCH   = 255
BSTAR          = -.22762651E-2
MEAN_MOTION_DOT = -.1208251E-1
MEAN_MOTION_DDOT = .46910831E-3

CCSDS_OMM_VERS = 2.0
CREATION_DATE  = 
ORIGINATOR     = 

OBJECT_NAME    = STARLINK-36998
OBJECT_ID      = 2026-055AA
CENTER_NAME    = EARTH
REF_FRAME      = TEME
TIME_SYSTEM    = UTC
MEAN_ELEMENT_THEORY = SGP/SGP4

EPOCH          = 2026-03-27T20:00:01.999872
MEAN_MOTION    = 16.00474705
ECCENTRICITY   = .00007777
INCLINATION    = 53.1586
RA_OF_ASC_NODE = 246.6558
ARG_OF_PERICENTER = 77.0937
MEAN_ANOMALY   = 51.4723

EPHEMERIS_TYPE = 0
CLASSIFICATION_TYPE = U
NORAD_CAT_ID   = 68286
ELEMENT_SET_NO = 999
REV_AT_EPOCH   = 255
BSTAR          = -.22618682E-2
MEAN_MOTION_DOT = -.1219596E-1
MEAN_MOTION_DDOT = .47857466E-3

CCSDS_OMM_VERS = 2.0
CREATION_DATE  = 
ORIGINATOR     = 

OBJECT_NAME    = STARLINK-37165
OBJECT_ID      = 2026-055AB
CENTER_NAME    = EARTH
REF_FRAME      = TEME
TIME_SYSTEM    = UTC
MEAN_ELEMENT_THEORY = SGP/SGP4

EPOCH          = 2026-03-27T20:00:01.999872
MEAN_MOTION    = 16.00598488
ECCENTRICITY   = .00006804
INCLINATION    = 53.1582
RA_OF_ASC_NODE = 246.6485
ARG_OF_PERICENTER = 62.1113
MEAN_ANOMALY   = 69.2996

EPHEMERIS_TYPE = 0
CLASSIFICATION_TYPE = U
NORAD_CAT_ID   = 68287
ELEMENT_SET_NO = 999
REV_AT_EPOCH   = 255
BSTAR          = -.22336179E-2
MEAN_MOTION_DOT = -.1213052E-1
MEAN_MOTION_DDOT = .47455199E-3

